<?xml version="1.0" encoding="UTF-8"?>
<ndm xmlns:xsi="http://www.w3.org/2001/XMLSchema-instance" xsi:noNamespaceSchemaLocation="https://sanaregistry.org/r/ndmxml_unqualified/ndmxml-2.0.0-master-2.0.xsd">
<omm id="CCSDS_OMM_VERS" version="2.0">
<header><CREATION_DATE/><ORIGINATOR/></header><body><segment><metadata><OBJECT_NAME>ORBCOMM FM115 [+]</OBJECT_NAME><OBJECT_ID>2015-081H</OBJECT_ID><CENTER_NAME>EARTH</CENTER_NAME><REF_FRAME>TEME</REF_FRAME><TIME_SYSTEM>UTC</TIME_SYSTEM><MEAN_ELEMENT_THEORY>SGP4</MEAN_ELEMENT_THEORY></metadata><data><meanElements><EPOCH>2023-10-18T14:04:41.138400</EPOCH><MEAN_MOTION>14.60010089</MEAN_MOTION><ECCENTRICITY>.0001021</ECCENTRICITY><INCLINATION>46.9996</INCLINATION><RA_OF_ASC_NODE>43.2763</RA_OF_ASC_NODE><ARG_OF_PERICENTER>215.7040</ARG_OF_PERICENTER><MEAN_ANOMALY>144.3778</MEAN_ANOMALY></meanElements><tleParameters><EPHEMERIS_TYPE>0</EPHEMERIS_TYPE><CLASSIFICATION_TYPE>U</CLASSIFICATION_TYPE><NORAD_CAT_ID>41186</NORAD_CAT_ID><ELEMENT_SET_NO>999</ELEMENT_SET_NO><REV_AT_EPOCH>41891</REV_AT_EPOCH><BSTAR>.39681E-3</BSTAR><MEAN_MOTION_DOT>.1751E-4</MEAN_MOTION_DOT><MEAN_MOTION_DDOT>0</MEAN_MOTION_DDOT></tleParameters></data></segment></body></omm>
<omm id="CCSDS_OMM_VERS" version="2.0">
<header><CREATION_DATE/><ORIGINATOR/></header><body><segment><metadata><OBJECT_NAME>ORBCOMM FM108 [+]</OBJECT_NAME><OBJECT_ID>2015-081J</OBJECT_ID><CENTER_NAME>EARTH</CENTER_NAME><REF_FRAME>TEME</REF_FRAME><TIME_SYSTEM>UTC</TIME_SYSTEM><MEAN_ELEMENT_THEORY>SGP4</MEAN_ELEMENT_THEORY></metadata><data><meanElements><EPOCH>2023-10-18T12:57:21.890880</EPOCH><MEAN_MOTION>14.56004399</MEAN_MOTION><ECCENTRICITY>.0001794</ECCENTRICITY><INCLINATION>47.0040</INCLINATION><RA_OF_ASC_NODE>91.3883</RA_OF_ASC_NODE><ARG_OF_PERICENTER>50.5107</ARG_OF_PERICENTER><MEAN_ANOMALY>309.5936</MEAN_ANOMALY></meanElements><tleParameters><EPHEMERIS_TYPE>0</EPHEMERIS_TYPE><CLASSIFICATION_TYPE>U</CLASSIFICATION_TYPE><NORAD_CAT_ID>41187</NORAD_CAT_ID><ELEMENT_SET_NO>999</ELEMENT_SET_NO><REV_AT_EPOCH>41818</REV_AT_EPOCH><BSTAR>.35151E-3</BSTAR><MEAN_MOTION_DOT>.1395E-4</MEAN_MOTION_DOT><MEAN_MOTION_DDOT>0</MEAN_MOTION_DDOT></tleParameters></data></segment></body></omm>
<omm id="CCSDS_OMM_VERS" version="2.0">
<header><CREATION_DATE/><ORIGINATOR/></header><body><segment><metadata><OBJECT_NAME>ORBCOMM FM117 [+]</OBJECT_NAME><OBJECT_ID>2015-081K</OBJECT_ID><CENTER_NAME>EARTH</CENTER_NAME><REF_FRAME>TEME</REF_FRAME><TIME_SYSTEM>UTC</TIME_SYSTEM><MEAN_ELEMENT_THEORY>SGP4</MEAN_ELEMENT_THEORY></metadata><data><meanElements><EPOCH>2023-10-18T17:04:20.049888</EPOCH><MEAN_MOTION>14.55973314</MEAN_MOTION><ECCENTRICITY>.0002372</ECCENTRICITY><INCLINATION>47.0002</INCLINATION><RA_OF_ASC_NODE>89.5427</RA_OF_ASC_NODE><ARG_OF_PERICENTER>63.5635</ARG_OF_PERICENTER><MEAN_ANOMALY>296.5493</MEAN_ANOMALY></meanElements><tleParameters><EPHEMERIS_TYPE>0</EPHEMERIS_TYPE><CLASSIFICATION_TYPE>U</CLASSIFICATION_TYPE><NORAD_CAT_ID>41188</NORAD_CAT_ID><ELEMENT_SET_NO>999</ELEMENT_SET_NO><REV_AT_EPOCH>41825</REV_AT_EPOCH><BSTAR>.30998E-3</BSTAR><MEAN_MOTION_DOT>.1209E-4</MEAN_MOTION_DOT><MEAN_MOTION_DDOT>0</MEAN_MOTION_DDOT></tleParameters></data></segment></body></omm>
<omm id="CCSDS_OMM_VERS" version="2.0">
<header><CREATION_DATE/><ORIGINATOR/></header><body><segment><metadata><OBJECT_NAME>ORBCOMM FM116 [+]</OBJECT_NAME><OBJECT_ID>2015-081L</OBJECT_ID><CENTER_NAME>EARTH</CENTER_NAME><REF_FRAME>TEME</REF_FRAME><TIME_SYSTEM>UTC</TIME_SYSTEM><MEAN_ELEMENT_THEORY>SGP4</MEAN_ELEMENT_THEORY></metadata><data><meanElements><EPOCH>2023-10-18T10:14:19.892832</EPOCH><MEAN_MOTION>14.56006205</MEAN_MOTION><ECCENTRICITY>.0001611</ECCENTRICITY><INCLINATION>47.0004</INCLINATION><RA_OF_ASC_NODE>180.6921</RA_OF_ASC_NODE><ARG_OF_PERICENTER>157.1264</ARG_OF_PERICENTER><MEAN_ANOMALY>202.9693</MEAN_ANOMALY></meanElements><tleParameters><EPHEMERIS_TYPE>0</EPHEMERIS_TYPE><CLASSIFICATION_TYPE>U</CLASSIFICATION_TYPE><NORAD_CAT_ID>41189</NORAD_CAT_ID><ELEMENT_SET_NO>999</ELEMENT_SET_NO><REV_AT_EPOCH>41709</REV_AT_EPOCH><BSTAR>.41886E-3</BSTAR><MEAN_MOTION_DOT>.1694E-4</MEAN_MOTION_DOT><MEAN_MOTION_DDOT>0</MEAN_MOTION_DDOT></tleParameters></data></segment></body></omm>
</ndm>
