ORBCOMM FM115 [+]       
1 41186U 15081H   23291.58658725  .00001751  00000+0  39681-3 0  9991
2 41186  46.9996  43.2763 0001021 215.7040 144.3778 14.60010089418919
ORBCOMM FM108 [+]       
1 41187U 15081J   23291.53983670  .00001395  00000+0  35151-3 0  9999
2 41187  47.0040  91.3883 0001794  50.5107 309.5936 14.56004399418187
ORBCOMM FM117 [+]       
1 41188U 15081K   23291.71134317  .00001209  00000+0  30998-3 0  9994
2 41188  47.0002  89.5427 0002372  63.5635 296.5493 14.55973314418254
ORBCOMM FM116 [+]       
1 41189U 15081L   23291.42661913  .00001694  00000+0  41886-3 0  9996
2 41189  47.0004 180.6921 0001611 157.1264 202.9693 14.56006205417093
